IRIDIUM 171             
1 43929U 19002H   24316.73372448  .00000251  00000+0  82570-4 0  9996
2 43929  86.4001 237.1753 0002060  73.8938 286.2485 14.34208773305475
IRIDIUM 170             
1 43930U 19002J   24316.74992402  .00004287  00000+0  67588-3 0  9991
2 43930  86.6118 236.9619 0002271  83.9607 276.1869 14.72239596313567
IRIDIUM 167             
1 43931U 19002K   24317.21577197  .00000974  00000+0  34071-3 0  9995
2 43931  86.3990 236.7496 0002414  73.5857 286.5604 14.34220903305546
IRIDIUM 174             
1 56728U 23068U   24316.72642977  .00005602  00000+0  73421-3 0  9999
2 56728  86.1980 245.3933 0002416  86.8848 273.2650 14.80191638 80202
IRIDIUM 178             
1 56729U 23068V   24316.85629833  .00005130  00000+0  67112-3 0  9996
2 56729  86.5743 269.7935 0003189  75.7755 284.3820 14.80255067 80229
IRIDIUM 179             
1 56730U 23068W   24316.44514043  .00005644  00000+0  73871-3 0  9998
2 56730  86.6750 275.9619 0002821  80.4774 279.6766 14.80251690 80161
